{
    "links": {
        "self": "http://www.neowsapp.com/rest/v1/neo/3653258?api_key=iIulBulltgU6a56xZRHN4H3l9WmuAYTsLGpBGhQ2"
    },
    "id": "3653258",
    "neo_reference_id": "3653258",
    "name": "(2013 UQ5)",
    "designation": "2013 UQ5",
    "nasa_jpl_url": "http://ssd.jpl.nasa.gov/sbdb.cgi?sstr=3653258",
    "absolute_magnitude_h": 25.6,
    "estimated_diameter": {
        "kilometers": {
            "estimated_diameter_min": 0.0201629919,
            "estimated_diameter_max": 0.0450858206
        },
        "meters": {
            "estimated_diameter_min": 20.1629919443,
            "estimated_diameter_max": 45.0858206172
        },
        "miles": {
            "estimated_diameter_min": 0.0125286985,
            "estimated_diameter_max": 0.0280150214
        },
        "feet": {
            "estimated_diameter_min": 66.1515504905,
            "estimated_diameter_max": 147.9193637137
        }
    },
    "is_potentially_hazardous_asteroid": false,
    "close_approach_data": [
        {
            "close_approach_date": "2013-10-14",
            "close_approach_date_full": "2013-Oct-14 20:37",
            "epoch_date_close_approach": 1381783020000,
            "relative_velocity": {
                "kilometers_per_second": "8.8292036312",
                "kilometers_per_hour": "31785.1330723232",
                "miles_per_hour": "19750.0456026333"
            },
            "miss_distance": {
                "astronomical": "0.0231154784",
                "lunar": "8.9919210976",
                "kilometers": "3458026.332671008",
                "miles": "2148717.9257475904"
            },
            "orbiting_body": "Earth"
        }
    ],
    "orbital_data": {
        "orbit_id": "7",
        "orbit_determination_date": "2017-04-06 08:43:57",
        "first_observation_date": "2013-10-26",
        "last_observation_date": "2013-11-08",
        "data_arc_in_days": 13,
        "observations_used": 24,
        "orbit_uncertainty": "8",
        "minimum_orbit_intersection": ".0140499",
        "jupiter_tisserand_invariant": "3.483",
        "epoch_osculation": "2456593.5",
        "eccentricity": ".5439942395639508",
        "semi_major_axis": "2.166249131445881",
        "inclination": "2.83021899080202",
        "ascending_node_longitude": "31.30357364683682",
        "orbital_period": "1164.557748247698",
        "perihelion_distance": ".9878220824789102",
        "perihelion_argument": "327.3244927955105",
        "aphelion_distance": "3.344676180412852",
        "perihelion_time": "2456562.338446636605",
        "mean_anomaly": "9.632978036256326",
        "mean_motion": ".3091302260808358",
        "equinox": "J2000",
        "orbit_class": {
            "orbit_class_type": "APO",
            "orbit_class_description": "Near-Earth asteroid orbits which cross the Earth’s orbit similar to that of 1862 Apollo",
            "orbit_class_range": "a (semi-major axis) > 1.0 AU; q (perihelion) < 1.017 AU"
        }
    },
    "is_sentry_object": false
}